OBJECT_NAME,OBJECT_ID,EPOCH,MEAN_MOTION,ECCENTRICITY,INCLINATION,RA_OF_ASC_NODE,ARG_OF_PERICENTER,MEAN_ANOMALY,EPHEMERIS_TYPE,CLASSIFICATION_TYPE,NORAD_CAT_ID,ELEMENT_SET_NO,REV_AT_EPOCH,BSTAR,MEAN_MOTION_DOT,MEAN_MOTION_DDOT
ONEWEB-0667,2023-029AH,2026-07-11T17:23:03.341472,13.20772630,.00019834,87.9194,269.5425,102.1346,258.0010,0,U,55827,999,16438,-.1271261E-3,-.39E-6,0
ONEWEB-0669,2023-029AJ,2026-07-11T15:26:40.992000,13.20772915,.00017771,87.9185,269.5679,85.1740,274.9596,0,U,55828,999,16437,-.6884322E-5,.1E-6,0
ONEWEB-0670,2023-029AK,2026-07-11T19:09:36.565632,13.14501670,.00016319,87.8959,284.8349,103.1843,256.9468,0,U,55829,999,16266,.34310959E-3,.14E-5,0
ONEWEB-0671,2023-029AL,2026-07-11T20:32:03.408000,13.19725706,.00019526,87.9185,300.0629,105.3904,254.7445,0,U,55830,999,16215,-.82365353E-4,-.2E-6,0
ONEWEB-0672,2023-029AM,2026-07-11T17:08:30.690240,13.20769985,.00021674,87.9188,269.5478,91.2362,268.9020,0,U,55831,999,16438,.1906129E-3,.9E-6,0
ONEWEB-0673,2023-029AN,2026-07-11T19:59:00.076992,13.19682584,.00019798,87.9146,300.0672,92.1762,267.9598,0,U,55832,999,16215,.24121292E-1,.9674E-4,0
ONEWEB-0674,2023-029AP,2026-07-11T18:23:55.359744,13.14501812,.00016481,87.8958,284.8183,101.6942,258.4373,0,U,55833,999,16264,.1521126E-3,.69E-6,0
ONEWEB-0675,2023-029AQ,2026-07-11T22:09:51.672672,13.19724363,.00022458,87.9187,300.0512,97.8615,262.2773,0,U,55834,999,16218,.94091875E-4,.51E-6,0
ONEWEB-0720,2023-029AR,2026-07-11T20:09:18.847008,13.19726932,.00020061,87.9187,300.0668,111.1370,248.9978,0,U,55835,999,16209,.26854405E-3,.12E-5,0
ONEWEB-0537,2023-043A,2026-07-11T14:09:03.776256,13.16593000,.00022948,87.9079,223.9250,91.4708,268.6686,0,U,56046,999,16217,-.26189169E-3,-.87E-6,0
ONEWEB-0538,2023-043B,2026-07-11T13:59:56.281920,13.16593865,.0002349,87.9080,223.9285,96.1884,263.9515,0,U,56047,999,16218,-.19258145E-3,-.61E-6,0
ONEWEB-0546,2023-043C,2026-07-11T15:31:08.076000,13.16593697,.00024225,87.9081,223.9160,78.6499,281.4904,0,U,56048,999,16218,-.16940299E-3,-.52E-6,0
ONEWEB-0547,2023-043D,2026-07-11T14:56:12.129504,13.21827593,.00022177,87.9239,239.1123,99.7052,260.4332,0,U,56049,999,16145,.34784462E-3,.157E-5,0
ONEWEB-0548,2023-043E,2026-07-11T14:17:01.597632,13.16594496,.00016174,87.9075,223.9219,91.7212,268.4104,0,U,56050,999,16217,.27064923E-4,.23E-6,0
ONEWEB-0549,2023-043F,2026-07-11T16:36:44.036640,13.21827312,.00024355,87.9234,239.1035,99.1546,260.9864,0,U,56051,999,16146,.17345003E-3,.85E-6,0
ONEWEB-0550,2023-043G,2026-07-11T16:17:22.202880,13.21827255,.00017934,87.9231,239.1052,93.9968,266.1371,0,U,56052,999,16146,.10655023E-3,.57E-6,0
ONEWEB-0551,2023-043H,2026-07-11T17:19:19.486848,13.15547223,.00023008,87.8983,254.3393,100.7449,259.3941,0,U,56053,999,15962,-.16751738E-3,-.5E-6,0
ONEWEB-0552,2023-043J,2026-07-11T14:21:04.688352,13.21825635,.00020382,87.9231,239.1256,101.3067,258.8296,0,U,56054,999,16145,.35488579E-4,.28E-6,0
ONEWEB-0553,2023-043K,2026-07-11T15:40:15.225600,13.16593107,.00021396,87.9080,223.9151,84.3210,275.8165,0,U,56055,999,16219,-.25902796E-3,-.86E-6,0
ONEWEB-0554,2023-043L,2026-07-11T15:22:01.086240,13.16594417,.00015204,87.9077,223.9256,89.2501,270.8804,0,U,56056,999,16217,.49429972E-4,.32E-6,0
ONEWEB-0555,2023-043M,2026-07-11T14:27:17.419680,13.16593712,.00022888,87.9077,223.9224,79.1555,280.9833,0,U,56057,999,16217,.20462037E-3,.91E-6,0
ONEWEB-0557,2023-043N,2026-07-11T14:47:48.652512,13.16593496,.0001497,87.9079,223.9293,56.4515,303.6758,0,U,56058,999,16217,.24164065E-3,.105E-5,0
ONEWEB-0558,2023-043P,2026-07-11T16:00:24.021216,13.21825442,.00024218,87.9238,239.1067,97.3886,262.7523,0,U,56059,999,16147,-.1663166E-3,-.56E-6,0
ONEWEB-0559,2023-043Q,2026-07-11T15:43:26.215392,13.21823597,.00022597,87.9239,239.1049,101.1568,258.9820,0,U,56060,999,16148,-.24712144E-3,-.89E-6,0
ONEWEB-0566,2023-043R,2026-07-11T15:33:45.008640,13.21823487,.00023606,87.9242,239.1039,104.8270,255.3125,0,U,56061,999,16146,-.28249717E-3,-.104E-5,0
ONEWEB-0568,2023-043S,2026-07-11T15:12:53.811360,13.16596121,.00021577,87.9078,223.9152,86.5675,273.5702,0,U,56062,999,16219,-.60923145E-4,-.1E-6,0
ONEWEB-0574,2023-043T,2026-07-11T15:24:05.167872,13.21825723,.00018594,87.9248,239.1095,96.7331,263.4014,0,U,56063,999,16150,-.25435411E-4,.3E-7,0
ONEWEB-0575,2023-043U,2026-07-11T15:03:46.124352,13.16595506,.00017919,87.9081,223.9126,83.5080,276.6255,0,U,56064,999,16218,.26098585E-3,.113E-5,0
ONEWEB-0576,2023-043V,2026-07-11T14:36:24.128640,13.16594640,.00019849,87.9082,223.9253,90.4280,269.7078,0,U,56065,999,16217,.23148002E-3,.101E-5,0
ONEWEB-0577,2023-043W,2026-07-11T14:45:31.968576,13.16595852,.00013163,87.9076,223.9217,75.5936,284.5341,0,U,56066,999,16220,.69793165E-3,.28E-5,0
