ONEWEB-0667             
1 55827U 23029AH  26192.72434423 -.00000039  00000+0 -12713-3 0  9992
2 55827  87.9194 269.5425 0001983 102.1346 258.0010 13.20772630164387
ONEWEB-0669             
1 55828U 23029AJ  26192.64353000  .00000010  00000+0 -68843-5 0  9990
2 55828  87.9185 269.5679 0001777  85.1740 274.9596 13.20772915164379
ONEWEB-0670             
1 55829U 23029AK  26192.79833988  .00000140  00000+0  34311-3 0  9999
2 55829  87.8959 284.8349 0001631 103.1843 256.9468 13.14501670162665
ONEWEB-0671             
1 55830U 23029AL  26192.85559500 -.00000020  00000+0 -82365-4 0  9995
2 55830  87.9185 300.0629 0001952 105.3904 254.7445 13.19725706162157
ONEWEB-0672             
1 55831U 23029AM  26192.71424410  .00000090  00000+0  19061-3 0  9999
2 55831  87.9188 269.5478 0002167  91.2362 268.9020 13.20769985164384
ONEWEB-0673             
1 55832U 23029AN  26192.83263978  .00009674  00000+0  24121-1 0  9991
2 55832  87.9146 300.0672 0001979  92.1762 267.9598 13.19682584162159
ONEWEB-0674             
1 55833U 23029AP  26192.76661296  .00000069  00000+0  15211-3 0  9990
2 55833  87.8958 284.8183 0001648 101.6942 258.4373 13.14501812162644
ONEWEB-0675             
1 55834U 23029AQ  26192.92351473  .00000051  00000+0  94092-4 0  9998
2 55834  87.9187 300.0512 0002245  97.8615 262.2773 13.19724363162183
ONEWEB-0720             
1 55835U 23029AR  26192.83980147  .00000120  00000+0  26854-3 0  9992
2 55835  87.9187 300.0668 0002006 111.1370 248.9978 13.19726932162091
ONEWEB-0537             
1 56046U 23043A   26192.58962704 -.00000087  00000+0 -26189-3 0  9999
2 56046  87.9079 223.9250 0002294  91.4708 268.6686 13.16593000162179
ONEWEB-0538             
1 56047U 23043B   26192.58329030 -.00000061  00000+0 -19258-3 0  9990
2 56047  87.9080 223.9285 0002349  96.1884 263.9515 13.16593865162187
ONEWEB-0546             
1 56048U 23043C   26192.64662125 -.00000052  00000+0 -16940-3 0  9998
2 56048  87.9081 223.9160 0002422  78.6499 281.4904 13.16593697162180
ONEWEB-0547             
1 56049U 23043D   26192.62236261  .00000157  00000+0  34784-3 0  9995
2 56049  87.9239 239.1123 0002217  99.7052 260.4332 13.21827593161457
ONEWEB-0548             
1 56050U 23043E   26192.59515738  .00000023  00000+0  27065-4 0  9999
2 56050  87.9075 223.9219 0001617  91.7212 268.4104 13.16594496162179
ONEWEB-0549             
1 56051U 23043F   26192.69217635  .00000085  00000+0  17345-3 0  9993
2 56051  87.9234 239.1035 0002435  99.1546 260.9864 13.21827312161466
ONEWEB-0550             
1 56052U 23043G   26192.67872920  .00000057  00000+0  10655-3 0  9992
2 56052  87.9231 239.1052 0001793  93.9968 266.1371 13.21827255161466
ONEWEB-0551             
1 56053U 23043H   26192.72175332 -.00000050  00000+0 -16752-3 0  9991
2 56053  87.8983 254.3393 0002300 100.7449 259.3941 13.15547223159622
ONEWEB-0552             
1 56054U 23043J   26192.59797093  .00000028  00000+0  35489-4 0  9993
2 56054  87.9231 239.1256 0002038 101.3067 258.8296 13.21825635161454
ONEWEB-0553             
1 56055U 23043K   26192.65295400 -.00000086  00000+0 -25903-3 0  9991
2 56055  87.9080 223.9151 0002139  84.3210 275.8165 13.16593107162190
ONEWEB-0554             
1 56056U 23043L   26192.64029035  .00000032  00000+0  49430-4 0  9991
2 56056  87.9077 223.9256 0001520  89.2501 270.8804 13.16594417162171
ONEWEB-0555             
1 56057U 23043M   26192.60228495  .00000091  00000+0  20462-3 0  9997
2 56057  87.9077 223.9224 0002288  79.1555 280.9833 13.16593712162177
ONEWEB-0557             
1 56058U 23043N   26192.61653533  .00000105  00000+0  24164-3 0  9993
2 56058  87.9079 223.9293 0001497  56.4515 303.6758 13.16593496162179
ONEWEB-0558             
1 56059U 23043P   26192.66694469 -.00000056  00000+0 -16632-3 0  9990
2 56059  87.9238 239.1067 0002421  97.3886 262.7523 13.21825442161470
ONEWEB-0559             
1 56060U 23043Q   26192.65516453 -.00000089  00000+0 -24712-3 0  9991
2 56060  87.9239 239.1049 0002259 101.1568 258.9820 13.21823597161480
ONEWEB-0566             
1 56061U 23043R   26192.64843760 -.00000104  00000+0 -28250-3 0  9994
2 56061  87.9242 239.1039 0002360 104.8270 255.3125 13.21823487161462
ONEWEB-0568             
1 56062U 23043S   26192.63395615 -.00000010  00000+0 -60923-4 0  9995
2 56062  87.9078 223.9152 0002157  86.5675 273.5702 13.16596121162196
ONEWEB-0574             
1 56063U 23043T   26192.64172648  .00000003  00000+0 -25435-4 0  9996
2 56063  87.9248 239.1095 0001859  96.7331 263.4014 13.21825723161508
ONEWEB-0575             
1 56064U 23043U   26192.62761718  .00000113  00000+0  26099-3 0  9994
2 56064  87.9081 223.9126 0001791  83.5080 276.6255 13.16595506162185
ONEWEB-0576             
1 56065U 23043V   26192.60861260  .00000101  00000+0  23148-3 0  9995
2 56065  87.9082 223.9253 0001984  90.4280 269.7078 13.16594640162174
ONEWEB-0577             
1 56066U 23043W   26192.61495334  .00000280  00000+0  69793-3 0  9996
2 56066  87.9076 223.9217 0001316  75.5936 284.5341 13.16595852162207
